1 49105U 21075AG  23259.38742203  .00000064  00000-0  13106-3 0  9998
2 49105  87.9232 205.5265 0001237  73.6315 286.4953 13.17648447101289
1 49106U 21075AH  23259.31159942 -.00000405  00000-0 -11625-2 0  9998
2 49106  87.9067 190.4231 0001690  73.2385 286.8929 13.12443480102741
1 49107U 21075AJ  23259.39376173 -.00000046  00000-0 -15183-3 0  9999
2 49107  87.9235 205.5281 0001768  72.2350 287.8974 13.17651320101265
1 49108U 21075AK  23259.39587543 -.00000057  00000-0 -17899-3 0  9993
2 49108  87.9223 205.5426 0001888  67.4603 292.6728 13.17651162101304
1 49186U 21083A   23259.22894238 -.00000052  00000-0 -17688-3 0  9993
2 49186  87.9077 160.1818 0001804  75.2097 284.9232 13.13468283 99003
1 49187U 21083B   23259.32012604 -.00000235  00000-0 -62842-3 0  9999
2 49187  87.9231 175.3270 0001593  75.3833 284.7476 13.18686896 97542
1 49188U 21083C   23259.31171318  .00000092  00000-0  19973-3 0  9993
2 49188  87.9228 175.3157 0001732  83.9394 276.1935 13.18685652 97583
1 49189U 21083D   23259.22471398 -.00000126  00000-0 -38035-3 0  9995
2 49189  87.9079 160.1809 0001888  72.1060 288.0275 13.13471835 99005
1 49190U 21083E   23259.31803020  .00000041  00000-0  71520-4 0  9999
2 49190  87.9234 175.3377 0001948  72.8736 287.2609 13.18688647 97547
1 49191U 21083F   23259.59066934  .00000056  00000-0  10610-3 0  9993
2 49191  87.9169 114.4641 0002028  87.3281 272.8085 13.20772160104228
1 49192U 21083G   23259.22048573 -.00000145  00000-0 -43249-3 0  9998
2 49192  87.9076 160.1715 0002491  68.5647 291.5747 13.13468106 98990
1 49193U 21083H   23259.30326484  .00000068  00000-0  14101-3 0  9995
2 49193  87.9231 175.3209 0001471  71.1275 289.0017 13.18684947 97566
1 49194U 21083J   23259.30748450  .00000008  00000-0 -11092-4 0  9999
2 49194  87.9418 175.2352 0001903  76.5509 283.5835 13.18691008 97575
1 49195U 21083K   23259.32223635  .00000057  00000-0  11217-3 0  9996
2 49195  87.9232 175.3067 0001247  70.2995 289.8272 13.18689286 97563
1 49196U 21083L   23259.29801781  .00000121  00000-0  27495-3 0  9994
2 49196  87.9295 175.2992 0001460  75.5177 284.6117 13.18683426 97589
1 49197U 21083M   23259.28714334 -.00000191  00000-0 -55776-3 0  9993
2 49197  87.9078 160.1658 0001800  67.4456 292.6864 13.13468520 98983
1 49198U 21083N   23259.31591309  .00000312  00000-0  75969-3 0  9992
2 49198  87.9230 175.3245 0001840  72.3120 287.8213 13.18683542 97577
1 49199U 21083P   23259.28183436 -.00000137  00000-0 -40963-3 0  9990
2 49199  87.9078 160.1689 0002064  78.4276 281.7085 13.13468004 98996
1 49200U 21083Q   23259.57593364  .00000092  00000-0  19431-3 0  9994
2 49200  87.9174 114.5121 0002427  96.7253 263.4157 13.20770328104180
1 49201U 21083R   23259.27760975  .00000018  00000-0  14299-4 0  9992
2 49201  87.9077 160.1591 0001881  69.2523 290.8807 13.13471899 99002
1 49202U 21083S   23259.24586895  .00000315  00000-0  82901-3 0  9991
2 49202  87.9075 160.1635 0001934  77.5359 282.5986 13.13472382 98999
1 49203U 21083T   23259.26913867  .00000259  00000-0  67432-3 0  9996
2 49203  87.9077 160.1642 0001802  68.4645 291.6676 13.13472724 98998
1 49204U 21083U   23259.58225640  .00000055  00000-0  10374-3 0  9994
2 49204  87.9177 114.4786 0002272  81.7195 278.4195 13.20771653104203
1 49205U 21083V   23259.49662594  .00000335  00000-0  88179-3 0  9997
2 49205  87.9076 160.1162 0001896  69.2916 290.8417 13.13471816 99007
1 49206U 21083W   23259.30117588  .00000071  00000-0  14632-3 0  9996
2 49206  87.9230 175.3204 0001774  72.6076 287.5250 13.18688009 97538
1 49207U 21083X   23259.30960351  .00000029  00000-0  41958-4 0  9996
2 49207  87.9313 175.2680 0002234  53.8481 306.2858 13.18684434 97554
1 49208U 21083Y   23259.58856712  .00000061  00000-0  11816-3 0  9997
2 49208  87.9169 114.5105 0002008  82.4915 277.6446 13.20771226104171
1 49209U 21083Z   23259.30539470  .00000050  00000-0  94556-4 0  9998
2 49209  87.9298 175.3015 0002631  53.9708 306.1668 13.18685378 97607
1 49210U 21083AA  23259.23315224  .00000018  00000-0  14857-4 0  9991
2 49210  87.9077 160.1740 0001579  71.6043 288.5258 13.13474258 98977
1 49211U 21083AB  23259.25116646  .00000412  00000-0  10930-2 0  9995
2 49211  87.9077 160.1570 0001568  51.6362 308.4907 13.13471454 98988
1 49212U 21083AC  23259.31382720  .00000060  00000-0  11848-3 0  9990
2 49212  87.9298 175.2914 0001409  72.2853 287.8433 13.18686213 97542
1 49213U 21083AD  23259.58014097  .00000145  00000-0  32396-3 0  9994
2 49213  87.9171 114.4714 0001096  54.7001 305.4234 13.20770727104203
1 49214U 21083AE  23259.26068405  .00000425  00000-0  11292-2 0  9994
2 49214  87.9019 160.1702 0001591  59.8771 300.2516 13.13474172 99015
1 49215U 21083AF  23259.57382029  .00000055  00000-0  10327-3 0  9998
2 49215  87.9176 114.4714 0002183  77.7688 282.3689 13.20769887104161
1 49216U 21083AG  23259.24165209  .00000260  00000-0  67783-3 0  9998
2 49216  87.9076 160.1708 0002182  74.0023 286.1346 13.13472943 99109
1 49217U 21083AH  23259.52332287  .00000096  00000-0  20532-3 0  9990
2 49217  87.9170 114.4642 0001799  68.0942 292.0382 13.20773478104197
1 49218U 21083AJ  23259.27338438  .00000129  00000-0  31732-3 0  9998
2 49218  87.9078 160.1644 0001985  69.4539 290.6803 13.13471166 98981
1 49219U 21083AK  23259.59487978 -.00000010  00000-0 -56064-4 0  9995
2 49219  87.9174 114.4695 0001688  76.0403 284.0917 13.20772004104200
1 49279U 21090A   23259.54185131  .00000131  00000-0  32017-3 0  9993
2 49279  87.8993 129.7249 0001993  82.1467 277.9889 13.14501671 95598
1 49280U 21090B   23259.58645903  .00000062  00000-0  11943-3 0  9995
2 49280  87.9234 114.4101 0002134  92.4083 267.7295 13.20773434 98432
1 49281U 21090C   23259.54224723  .00000148  00000-0  33248-3 0  9992
2 49281  87.9178 114.4673 0001519  71.8571 288.2728 13.20770646 97219
1 49282U 21090D   23259.15280537  .00000094  00000-0  22022-3 0  9993
2 49282  87.8997 129.7817 0002054  86.0580 274.0784 13.14500687 95548
1 49283U 21090E   23259.54015508  .00000109  00000-0  23610-3 0  9992
2 49283  87.9171 114.4747 0001066 113.4890 246.6355 13.20770752 97212
1 49284U 21090F   23259.56963075  .00000092  00000-0  19412-3 0  9992
2 49284  87.9181 114.4426 0001329  76.0669 284.0612 13.20771147 97949
1 49285U 21090G   23259.56752634  .00000058  00000-0  11139-3 0  9990
2 49285  87.9168 114.4784 0001688  62.7719 297.3587 13.20773001 97925
1 49286U 21090H   23259.55700433  .00000125  00000-0  27632-3 0  9990
2 49286  87.9172 114.4776 0001713  75.1725 284.9598 13.20771520 97238
1 49287U 21090J   23259.53806260  .00000081  00000-0  16625-3 0  9995
2 49287  87.9170 114.4776 0001598  84.1060 276.0256 13.20771194 97689
1 49288U 21090K   23259.22564316  .00000015  00000-0  57990-5 0  9994
2 49288  87.9256 144.9960 0002126  69.7072 290.4289 13.19727238 94364
1 49289U 21090L   23259.55487195  .00000146  00000-0  32620-3 0  9996
2 49289  87.9170 114.4716 0001304  89.5773 270.5510 13.20770618 97693
1 49290U 21090M   23259.59277177  .00000038  00000-0  61365-4 0  9998
2 49290  87.9181 114.4752 0001832  87.5349 272.5994 13.20770782 98837
1 49291U 21090N   23259.23512608  .00000045  00000-0  78852-4 0  9998
2 49291  87.9259 144.9821 0001924  74.9524 285.1821 13.19723031 93877
1 49292U 21090P   23259.14857881  .00000017  00000-0  11944-4 0  9992
2 49292  87.8997 129.7883 0001833  85.1813 274.9526 13.14505501 95526
1 49293U 21090Q   23259.55279207  .00000123  00000-0  27115-3 0  9992
2 49293  87.9168 114.4664 0001858  88.9610 271.1736 13.20771320 97210
1 49294U 21090R   23259.52542697  .00000062  00000-0  12102-3 0  9998
2 49294  87.9179 114.4889 0001908 111.4822 248.6515 13.20770956 98360
1 49295U 21090S   23259.45782968  .00000057  00000-0  11066-3 0  9990
2 49295  87.9255 144.9325 0001898  80.8060 279.3287 13.19725239 93892
1 49296U 21090T   23259.56119452  .00000052  00000-0  95319-4 0  9994
2 49296  87.9168 114.4688 0001652  80.1906 279.9414 13.20773335 97254
1 49297U 21090U   23259.23827589  .00000035  00000-0  55458-4 0  9997
2 49297  87.9256 144.9650 0001885  76.4817 283.6526 13.19723899 93909
1 49298U 21090V   23259.55069090  .00000154  00000-0  34688-3 0  9991
2 49298  87.9179 114.4673 0002148  79.9490 280.1886 13.20771076 97221
1 49299U 21090W   23259.57803604  .00000087  00000-0  18263-3 0  9997
2 49299  87.9248 114.4183 0001586  95.7166 264.4149 13.20770832 98414
1 49300U 21090X   23259.59258332 -.00000158  00000-0 -46073-3 0  9995
2 49300  87.8995 129.6903 0001761  81.4502 278.6827 13.14505645 95580
1 49301U 21090Y   23259.56539088 -.00000225  00000-0 -58495-3 0  9999
2 49301  87.9168 114.4703 0000965  80.9073 279.2169 13.20772016 97916
1 49302U 21090Z   23259.23669691  .00000040  00000-0  68270-4 0  9994
2 49302  87.9259 144.9822 0002123  80.4923 279.6449 13.19723852 93907
1 49303U 21090AA  23259.56330958 -.00005052  00000-0 -12460-1 0  9999
2 49303  87.9169 114.4668 0002614  53.3696 306.7677 13.20795997 97909
1 49304U 21090AB  23259.52647785  .00000077  00000-0  15827-3 0  9997
2 49304  87.9180 114.4689 0001581  92.8491 267.2823 13.20770935 97166
1 49305U 21090AC  23259.58623819 -.00000370  00000-0 -10324-2 0  9990
2 49305  87.8996 129.6927 0001791  81.9633 278.1700 13.14502179 95589
1 49306U 21090AD  23259.23352350  .00000026  00000-0  33370-4 0  9996
2 49306  87.9257 144.9788 0001758  72.5258 287.6067 13.19725595 93873
1 49307U 21090AE  23259.54857247  .00000080  00000-0  16397-3 0  9995
2 49307  87.9229 114.4109 0001662  78.3959 281.7361 13.20769977 97216
1 49308U 21090AF  23259.53591751  .00001887  00000-0  46062-2 0  9997
2 49308  87.9166 114.4703 0001471  82.0314 278.0987 13.20788989 97208
1 49309U 21090AG  23259.57990221 -.00002473  00000-0 -67041-2 0  9991
2 49309  87.9006 129.6757 0001648  84.5478 275.5840 13.14516767 95612
1 49310U 21090AH  23259.53173859  .00000087  00000-0  18326-3 0  9999
2 49310  87.9179 114.4679 0001232 100.5098 259.6174 13.20771290 97218
1 49311U 21090AJ  23259.52754013  .00000080  00000-0  16527-3 0  9990
2 49311  87.9178 114.4711 0001332  88.4095 271.7191 13.20772396 97185
